CTC2_L_00038001-01
1 10000U 26459WW  26075.70040509  .00000000  00000+0  00000-0 0  9991
2 10000  65.0000   0.0000 0000000   0.0000   0.0000 15.59190035    13
CTC2_L_00038001-02
1 10001U 26987WF  26075.70040509  .00000000  00000+0  00000-0 0  9998
2 10001  65.0000   0.0000 0000000   0.0000  90.0000 15.59190035    13
CTC2_L_00038001-03
1 10002U 24960ZW  26075.70040509  .00000000  00000+0  00000-0 0  9998
2 10002  65.0000   0.0000 0000000   0.0000 180.0000 15.59190035    14
CTC2_L_00038001-04
1 10003U 22221HF  26075.70040509  .00000000  00000+0  00000-0 0  9997
2 10003  65.0000   0.0000 0000000   0.0000 270.0000 15.59190035    15
CTC2_L_00038002-01
1 10004U 22046JX  26075.70040509  .00000000  00000+0  00000-0 0  9993
2 10004  65.0000  12.0000 0000000   0.0000  12.0000 15.59190035    13
CTC2_L_00038002-02
1 10005U 24240YB  26075.70040509  .00000000  00000+0  00000-0 0  9992
2 10005  65.0000  12.0000 0000000   0.0000 102.0000 15.59190035    14
CTC2_L_00038002-03
1 10006U 26172KL  26075.70040509  .00000000  00000+0  00000-0 0  9999
2 10006  65.0000  12.0000 0000000   0.0000 192.0000 15.59190035    14
CTC2_L_00038002-04
1 10007U 25746XY  26075.70040509  .00000000  00000+0  00000-0 0  9996
2 10007  65.0000  12.0000 0000000   0.0000 282.0000 15.59190035    15
CTC2_L_00038003-01
1 10008U 22263TY  26075.70040509  .00000000  00000+0  00000-0 0  9998
2 10008  65.0000  24.0000 0000000   0.0000  24.0000 15.59190035    13
CTC2_L_00038003-02
1 10009U 24092VV  26075.70040509  .00000000  00000+0  00000-0 0  9991
2 10009  65.0000  24.0000 0000000   0.0000 114.0000 15.59190035    14
CTC2_L_00038003-03
1 10010U 22131NQ  26075.70040509  .00000000  00000+0  00000-0 0  9995
2 10010  65.0000  24.0000 0000000   0.0000 204.0000 15.59190035    16
CTC2_L_00038003-04
1 10011U 26250KC  26075.70040509  .00000000  00000+0  00000-0 0  9992
2 10011  65.0000  24.0000 0000000   0.0000 294.0000 15.59190035    16
CTC2_L_00038004-01
1 10012U 24475EB  26075.70040509  .00000000  00000+0  00000-0 0  9990
2 10012  65.0000  36.0000 0000000   0.0000  36.0000 15.59190035    14
CTC2_L_00038004-02
1 10013U 26086NJ  26075.70040509  .00000000  00000+0  00000-0 0  9991
2 10013  65.0000  36.0000 0000000   0.0000 126.0000 15.59190035    15
CTC2_L_00038004-03
1 10014U 25848YD  26075.70040509  .00000000  00000+0  00000-0 0  9997
2 10014  65.0000  36.0000 0000000   0.0000 216.0000 15.59190035    16
CTC2_L_00038004-04
1 10015U 25062WO  26075.70040509  .00000000  00000+0  00000-0 0  9996
2 10015  65.0000  36.0000 0000000   0.0000 306.0000 15.59190035    17
CTC2_L_00038005-01
1 10016U 26701JZ  26075.70040509  .00000000  00000+0  00000-0 0  9998
2 10016  65.0000  48.0000 0000000   0.0000  48.0000 15.59190035    14
CTC2_L_00038005-02
1 10017U 23200FK  26075.70040509  .00000000  00000+0  00000-0 0  9990
2 10017  65.0000  48.0000 0000000   0.0000 138.0000 15.59190035    15
CTC2_L_00038005-03
1 10018U 22349HY  26075.70040509  .00000000  00000+0  00000-0 0  9994
2 10018  65.0000  48.0000 0000000   0.0000 228.0000 15.59190035    16
CTC2_L_00038005-04
1 10019U 22788BE  26075.70040509  .00000000  00000+0  00000-0 0  9992
2 10019  65.0000  48.0000 0000000   0.0000 318.0000 15.59190035    17
CTC2_L_00038006-01
1 10020U 23301IJ  26075.70040509  .00000000  00000+0  00000-0 0  9996
2 10020  65.0000  60.0000 0000000   0.0000  60.0000 15.59190035    17
CTC2_L_00038006-02
1 10021U 23543UU  26075.70040509  .00000000  00000+0  00000-0 0  9995
2 10021  65.0000  60.0000 0000000   0.0000 150.0000 15.59190035    18
CTC2_L_00038006-03
1 10022U 25089HC  26075.70040509  .00000000  00000+0  00000-0 0  9993
2 10022  65.0000  60.0000 0000000   0.0000 240.0000 15.59190035    19
CTC2_L_00038006-04
1 10023U 23261LJ  26075.70040509  .00000000  00000+0  00000-0 0  9994
2 10023  65.0000  60.0000 0000000   0.0000 330.0000 15.59190035    10
CTC2_L_00038007-01
1 10024U 25751CL  26075.70040509  .00000000  00000+0  00000-0 0  9991
2 10024  65.0000  72.0000 0000000   0.0000  72.0000 15.59190035    17
CTC2_L_00038007-02
1 10025U 25536UX  26075.70040509  .00000000  00000+0  00000-0 0  9993
2 10025  65.0000  72.0000 0000000   0.0000 162.0000 15.59190035    18
CTC2_L_00038007-03
1 10026U 24930VT  26075.70040509  .00000000  00000+0  00000-0 0  9991
2 10026  65.0000  72.0000 0000000   0.0000 252.0000 15.59190035    19
CTC2_L_00038007-04
1 10027U 26315YN  26075.70040509  .00000000  00000+0  00000-0 0  9991
2 10027  65.0000  72.0000 0000000   0.0000 342.0000 15.59190035    10
CTC2_L_00038008-01
1 10028U 24618QH  26075.70040509  .00000000  00000+0  00000-0 0  9996
2 10028  65.0000  84.0000 0000000   0.0000  84.0000 15.59190035    17
CTC2_L_00038008-02
1 10029U 26931XZ  26075.70040509  .00000000  00000+0  00000-0 0  9997
2 10029  65.0000  84.0000 0000000   0.0000 174.0000 15.59190035    18
CTC2_L_00038008-03
1 10030U 25136R   26075.70040509  .00000000  00000+0  00000-0 0  9995
2 10030  65.0000  84.0000 0000000   0.0000 264.0000 15.59190035    10
CTC2_L_00038008-04
1 10031U 23035KG  26075.70040509  .00000000  00000+0  00000-0 0  9992
2 10031  65.0000  84.0000 0000000   0.0000 354.0000 15.59190035    11
CTC2_L_00038009-01
1 10032U 24118YU  26075.70040509  .00000000  00000+0  00000-0 0  9996
2 10032  65.0000  96.0000 0000000   0.0000  96.0000 15.59190035    18
CTC2_L_00038009-02
1 10033U 26600NF  26075.70040509  .00000000  00000+0  00000-0 0  9995
2 10033  65.0000  96.0000 0000000   0.0000 186.0000 15.59190035    19
CTC2_L_00038009-03
1 10034U 24065VR  26075.70040509  .00000000  00000+0  00000-0 0  9999
2 10034  65.0000  96.0000 0000000   0.0000 276.0000 15.59190035    10
CTC2_L_00038009-04
1 10035U 23481GK  26075.70040509  .00000000  00000+0  00000-0 0  9991
2 10035  65.0000  96.0000 0000000   0.0000   6.0000 15.59190035    12
CTC2_L_00038010-01
1 10036U 22173GD  26075.70040509  .00000000  00000+0  00000-0 0  9999
2 10036  65.0000 108.0000 0000000   0.0000 108.0000 15.59190035    10
CTC2_L_00038010-02
1 10037U 24531QZ  26075.70040509  .00000000  00000+0  00000-0 0  9990
2 10037  65.0000 108.0000 0000000   0.0000 198.0000 15.59190035    10
CTC2_L_00038010-03
1 10038U 22963JW  26075.70040509  .00000000  00000+0  00000-0 0  9998
2 10038  65.0000 108.0000 0000000   0.0000 288.0000 15.59190035    11
CTC2_L_00038010-04
1 10039U 26509AG  26075.70040509  .00000000  00000+0  00000-0 0  9999
2 10039  65.0000 108.0000 0000000   0.0000  18.0000 15.59190035    13
CTC2_L_00038011-01
1 10040U 22124BV  26075.70040509  .00000000  00000+0  00000-0 0  9990
2 10040  65.0000 120.0000 0000000   0.0000 120.0000 15.59190035    13
CTC2_L_00038011-02
1 10041U 23792IB  26075.70040509  .00000000  00000+0  00000-0 0  9993
2 10041  65.0000 120.0000 0000000   0.0000 210.0000 15.59190035    14
CTC2_L_00038011-03
1 10042U 25867WR  26075.70040509  .00000000  00000+0  00000-0 0  9999
2 10042  65.0000 120.0000 0000000   0.0000 300.0000 15.59190035    15
CTC2_L_00038011-04
1 10043U 24390GV  26075.70040509  .00000000  00000+0  00000-0 0  9990
2 10043  65.0000 120.0000 0000000   0.0000  30.0000 15.59190035    16
CTC2_L_00038012-01
1 10044U 22115KJ  26075.70040509  .00000000  00000+0  00000-0 0  9994
2 10044  65.0000 132.0000 0000000   0.0000 132.0000 15.59190035    13
CTC2_L_00038012-02
1 10045U 25532IB  26075.70040509  .00000000  00000+0  00000-0 0  9991
2 10045  65.0000 132.0000 0000000   0.0000 222.0000 15.59190035    14
CTC2_L_00038012-03
1 10046U 26386LO  26075.70040509  .00000000  00000+0  00000-0 0  9990
2 10046  65.0000 132.0000 0000000   0.0000 312.0000 15.59190035    15
CTC2_L_00038012-04
1 10047U 22268QP  26075.70040509  .00000000  00000+0  00000-0 0  9996
2 10047  65.0000 132.0000 0000000   0.0000  42.0000 15.59190035    16
CTC2_L_00038013-01
1 10048U 26480WH  26075.70040509  .00000000  00000+0  00000-0 0  9997
2 10048  65.0000 144.0000 0000000   0.0000 144.0000 15.59190035    13
CTC2_L_00038013-02
1 10049U 22071TE  26075.70040509  .00000000  00000+0  00000-0 0  9990
2 10049  65.0000 144.0000 0000000   0.0000 234.0000 15.59190035    14
CTC2_L_00038013-03
1 10050U 23955IX  26075.70040509  .00000000  00000+0  00000-0 0  9994
2 10050  65.0000 144.0000 0000000   0.0000 324.0000 15.59190035    16
CTC2_L_00038013-04
1 10051U 24753KH  26075.70040509  .00000000  00000+0  00000-0 0  9992
2 10051  65.0000 144.0000 0000000   0.0000  54.0000 15.59190035    17
CTC2_L_00038014-01
1 10052U 23148HF  26075.70040509  .00000000  00000+0  00000-0 0  9990
2 10052  65.0000 156.0000 0000000   0.0000 156.0000 15.59190035    14
CTC2_L_00038014-02
1 10053U 26558UT  26075.70040509  .00000000  00000+0  00000-0 0  9999
2 10053  65.0000 156.0000 0000000   0.0000 246.0000 15.59190035    15
CTC2_L_00038014-03
1 10054U 25037TO  26075.70040509  .00000000  00000+0  00000-0 0  9991
2 10054  65.0000 156.0000 0000000   0.0000 336.0000 15.59190035    16
CTC2_L_00038014-04
1 10055U 26540FF  26075.70040509  .00000000  00000+0  00000-0 0  9992
2 10055  65.0000 156.0000 0000000   0.0000  66.0000 15.59190035    17
CTC2_L_00038015-01
1 10056U 22554PK  26075.70040509  .00000000  00000+0  00000-0 0  9994
2 10056  65.0000 168.0000 0000000   0.0000 168.0000 15.59190035    14
CTC2_L_00038015-02
1 10057U 22818QN  26075.70040509  .00000000  00000+0  00000-0 0  9998
2 10057  65.0000 168.0000 0000000   0.0000 258.0000 15.59190035    15
CTC2_L_00038015-03
1 10058U 24152FN  26075.70040509  .00000000  00000+0  00000-0 0  9992
2 10058  65.0000 168.0000 0000000   0.0000 348.0000 15.59190035    16
CTC2_L_00038015-04
1 10059U 24310R   26075.70040509  .00000000  00000+0  00000-0 0  9999
2 10059  65.0000 168.0000 0000000   0.0000  78.0000 15.59190035    17
CTC2_L_00038016-01
1 10060U 26557RR  26075.70040509  .00000000  00000+0  00000-0 0  9996
2 10060  65.0000 180.0000 0000000   0.0000 180.0000 15.59190035    17
CTC2_L_00038016-02
1 10061U 22139CI  26075.70040509  .00000000  00000+0  00000-0 0  9999
2 10061  65.0000 180.0000 0000000   0.0000 270.0000 15.59190035    18
